NORAD_CAT_ID,OBJECT_NAME,OBJECT_TYPE,EPOCH,MEAN_MOTION,ECCENTRICITY,INCLINATION,RA_OF_ASC_NODE,ARG_OF_PERICENTER,MEAN_ANOMALY,BSTAR,MEAN_MOTION_DOT,MEAN_MOTION_DDOT,TLE_LINE0,TLE_LINE1,TLE_LINE2,SEMIMAJOR_AXIS,PERIOD,APOGEE,PERIGEE,DECAYED
55634.0,STARLINK-5500,PAYLOAD,2023-12-12 15:43:13,14.98331238,0.000283,69.9997,107.0498,260.552,99.532,7.3355e-06,-5e-08,0.0,0 STARLINK-5500,1 55634U 23021G   23346.65501776 -.00000005  00000-0  73355-5 0  9990,2 55634  69.9997 107.0498 0002830 260.5520  99.5320 14.98331238 45768,6950.189,96.107,574.021,570.087,0.0
55634.0,STARLINK-5500,PAYLOAD,2023-12-13 10:56:50,14.98331709,0.0002891,69.9996,105.0291,263.6067,96.4763,5.1495e-05,5.22e-06,0.0,0 STARLINK-5500,1 55634U 23021G   23347.45613543  .00000522  00000-0  51495-4 0  9998,2 55634  69.9996 105.0291 0002891 263.6067  96.4763 14.98331709 45583,6950.188,96.107,574.062,570.043,0.0
55634.0,STARLINK-5500,PAYLOAD,2023-12-13 14:09:06,14.98330524,0.0002959,69.9997,104.6923,263.742,96.3402,5.531e-05,5.67e-06,0.0,0 STARLINK-5500,1 55634U 23021G   23347.58965586  .00000567  00000-0  55310-4 0  9998,2 55634  69.9997 104.6923 0002959 263.7420  96.3402 14.98330524 45909,6950.191,96.107,574.113,570.0,0.0
55634.0,STARLINK-5500,PAYLOAD,2023-12-13 17:21:22,14.98332978,0.0002848,69.9997,104.3558,261.323,98.7606,7.1868e-05,7.65e-06,0.0,0 STARLINK-5500,1 55634U 23021G   23347.72317363  .00000765  00000-0  71868-4 0  9994,2 55634  69.9997 104.3558 0002848 261.3230  98.7606 14.98332978 45929,6950.184,96.107,574.028,570.069,0.0
55634.0,STARLINK-5500,PAYLOAD,2023-12-14 10:58:51,14.98326468,0.0002785,70.0007,102.506,255.7441,104.3409,-1.8793e-05,-3.17e-06,0.0,0 STARLINK-5500,1 55634U 23021G   23348.45754057 -.00000317  00000-0 -18793-4 0  9993,2 55634  70.0007 102.5060 0002785 255.7441 104.3409 14.98326468 45734,6950.204,96.107,574.004,570.133,0.0
55634.0,STARLINK-5500,PAYLOAD,2023-12-14 14:11:07,14.98326785,0.0002809,70.0003,102.1685,256.8154,103.2691,-1.9812e-05,-3.29e-06,0.0,0 STARLINK-5500,1 55634U 23021G   23348.59106068 -.00000329  00000-0 -19812-4 0  9997,2 55634  70.0003 102.1685 0002809 256.8154 103.2691 14.98326785 46058,6950.203,96.107,574.02,570.116,0.0
55634.0,STARLINK-5500,PAYLOAD,2023-12-14 17:23:23,14.98326522,0.0002817,70.0002,101.8319,258.1586,101.9257,-2.439e-05,-3.84e-06,0.0,0 STARLINK-5500,1 55634U 23021G   23348.72458130 -.00000384  00000-0 -24390-4 0  9990,2 55634  70.0002 101.8319 0002817 258.1586 101.9257 14.98326522 46074,6950.204,96.107,574.027,570.111,0.0
55634.0,STARLINK-5500,PAYLOAD,2023-12-15 11:00:52,14.98329872,0.0003052,69.9997,99.9792,266.779,93.302,-2.1553e-05,-3.5e-06,0.0,0 STARLINK-5500,1 55634U 23021G   23349.45893992 -.00000350  00000-0 -21553-4 0  9991,2 55634  69.9997  99.9792 0003052 266.7790  93.3020 14.98329872 45881,6950.193,96.107,574.179,569.937,0.0
55634.0,STARLINK-5500,PAYLOAD,2023-12-15 14:13:08,14.98332008,0.0002749,69.9999,99.6428,255.866,104.2193,-4.3892e-05,-6.17e-06,0.0,0 STARLINK-5500,1 55634U 23021G   23349.59245908 -.00000617  00000-0 -43892-4 0  9990,2 55634  69.9999  99.6428 0002749 255.8660 104.2193 14.98332008 46208,6950.187,96.107,573.962,570.141,0.0
55634.0,STARLINK-5500,PAYLOAD,2023-12-15 17:25:24,14.98331978,0.0002962,69.9999,99.306,264.9575,95.1245,2.0693e-05,1.54e-06,0.0,0 STARLINK-5500,1 55634U 23021G   23349.72597748  .00000154  00000-0  20693-4 0  9995,2 55634  69.9999  99.3060 0002962 264.9575  95.1245 14.98331978 46223,6950.187,96.107,574.11,569.993,0.0
55634.0,STARLINK-5500,PAYLOAD,2023-12-16 11:02:53,14.98328261,0.0002845,70.0001,97.4545,264.9778,95.1056,6.9339e-05,7.34e-06,0.0,0 STARLINK-5500,1 55634U 23021G   23350.46033930  .00000734  00000-0  69339-4 0  9990,2 55634  70.0001  97.4545 0002845 264.9778  95.1056 14.98328261 46032,6950.198,96.107,574.041,570.086,0.0
55634.0,STARLINK-5500,PAYLOAD,2023-12-16 14:15:09,14.98328394,0.0002832,70.0003,97.1182,262.3726,97.7112,8.4352e-05,9.14e-06,0.0,0 STARLINK-5500,1 55634U 23021G   23350.59385904  .00000914  00000-0  84352-4 0  9997,2 55634  70.0003  97.1182 0002832 262.3726  97.7112 14.98328394 46352,6950.198,96.107,574.031,570.095,0.0
55634.0,STARLINK-5500,PAYLOAD,2023-12-16 17:27:25,14.98330561,0.0002968,69.9999,96.7814,266.5873,93.4947,8.577e-05,9.31e-06,0.0,0 STARLINK-5500,1 55634U 23021G   23350.72737780  .00000931  00000-0  85770-4 0  9999,2 55634  69.9999  96.7814 0002968 266.5873  93.4947 14.98330561 46379,6950.191,96.107,574.119,569.993,0.0
55634.0,STARLINK-5500,PAYLOAD,2023-12-17 11:04:54,14.98329921,0.0002792,70.0002,94.9298,263.9725,96.1116,3.9833e-05,3.82e-06,0.0,0 STARLINK-5500,1 55634U 23021G   23351.46173928  .00000382  00000-0  39833-4 0  9998,2 55634  70.0002  94.9298 0002792 263.9725  96.1116 14.98329921 46180,6950.193,96.107,573.999,570.118,0.0
55634.0,STARLINK-5500,PAYLOAD,2023-12-17 14:17:10,14.98331547,0.0002824,70.0002,94.5931,266.1814,93.9022,3.7713e-05,3.57e-06,0.0,0 STARLINK-5500,1 55634U 23021G   23351.59525841  .00000357  00000-0  37713-4 0  9994,2 55634  70.0002  94.5931 0002824 266.1814  93.9022 14.98331547 46504,6950.188,96.107,574.016,570.09,0.0
55634.0,STARLINK-5500,PAYLOAD,2023-12-17 17:29:26,14.98333173,0.0002734,70.0004,94.2569,262.3501,97.7347,6.553e-05,6.89e-06,0.0,0 STARLINK-5500,1 55634U 23021G   23351.72877634  .00000689  00000-0  65530-4 0  9995,2 55634  70.0004  94.2569 0002734 262.3501  97.7347 14.98333173 46522,6950.183,96.107,573.948,570.148,0.0
55634.0,STARLINK-5500,PAYLOAD,2023-12-18 11:06:54,14.98338563,0.0002844,70.0003,92.4052,263.9993,96.0842,8.6184e-05,9.36e-06,0.0,0 STARLINK-5500,1 55634U 23021G   23352.46312958  .00000936  00000-0  86184-4 0  9993,2 55634  70.0003  92.4052 0002844 263.9993  96.0842 14.98338563 46331,6950.166,96.106,574.008,570.055,0.0
55634.0,STARLINK-5500,PAYLOAD,2023-12-18 14:19:10,14.98339418,0.0002716,70.0003,92.0686,257.0454,103.0402,9.1225e-05,9.96e-06,0.0,0 STARLINK-5500,1 55634U 23021G   23352.59664796  .00000996  00000-0  91225-4 0  9995,2 55634  70.0003  92.0686 0002716 257.0454 103.0402 14.98339418 46650,6950.164,96.106,573.916,570.141,0.0
55634.0,STARLINK-5500,PAYLOAD,2023-12-18 15:55:18,14.98341024,0.0002678,70.0004,91.9006,255.9323,104.1539,0.00010668,1.18e-05,0.0,0 STARLINK-5500,1 55634U 23021G   23352.66340616  .00001180  00000-0  10668-3 0  9992,2 55634  70.0004  91.9006 0002678 255.9323 104.1539 14.98341024 46664,6950.159,96.106,573.885,570.163,0.0
55634.0,STARLINK-5500,PAYLOAD,2023-12-19 11:08:55,14.98329471,0.0002578,70.0024,89.8841,229.1089,130.9847,8.803e-06,1.2e-07,0.0,0 STARLINK-5500,1 55634U 23021G   23353.46453337  .00000012  00000-0  88030-5 0  9999,2 55634  70.0024  89.8841 0002578 229.1089 130.9847 14.98329471 46481,6950.195,96.107,573.851,570.268,0.0
55634.0,STARLINK-5500,PAYLOAD,2023-12-19 14:21:12,14.98328537,0.0002752,70.0011,89.5462,245.5179,114.5693,-2.2428e-05,-3.61e-06,0.0,0 STARLINK-5500,1 55634U 23021G   23353.59805568 -.00000361  00000-0 -22428-4 0  9997,2 55634  70.0011  89.5462 0002752 245.5179 114.5693 14.98328537 46804,6950.197,96.107,573.975,570.15,0.0
55634.0,STARLINK-5500,PAYLOAD,2023-12-20 11:10:57,14.98326576,0.0002499,70.0019,87.3581,242.8122,117.2782,-7.395e-05,-9.75e-06,0.0,0 STARLINK-5500,1 55634U 23021G   23354.46593993 -.00000975  00000-0 -73950-4 0  9997,2 55634  70.0019  87.3581 0002499 242.8122 117.2782 14.98326576 46637,6950.203,96.107,573.805,570.332,0.0
55634.0,STARLINK-5500,PAYLOAD,2023-12-20 14:23:13,14.98325955,0.0002561,70.0021,87.0222,242.139,117.951,-8.229e-05,-1.074e-05,0.0,0 STARLINK-5500,1 55634U 23021G   23354.59946034 -.00001074  00000-0 -82290-4 0  9997,2 55634  70.0021  87.0222 0002561 242.1390 117.9510 14.98325955 46950,6950.205,96.107,573.85,570.29,0.0
55634.0,STARLINK-5500,PAYLOAD,2023-12-20 15:59:21,14.9832622,0.0002045,70.0022,86.852,256.8863,103.2067,-3.5475e-05,-5.16e-06,0.0,0 STARLINK-5500,1 55634U 23021G   23354.66622114 -.00000516  00000-0 -35475-4 0  9998,2 55634  70.0022  86.8520 0002045 256.8863 103.2067 14.98326220 46965,6950.205,96.107,573.491,570.648,0.0
55634.0,STARLINK-5500,PAYLOAD,2023-12-21 11:12:57,14.98328879,0.0002439,70.0016,84.8326,250.1364,109.9532,0.00011365,1.263e-05,0.0,0 STARLINK-5500,1 55634U 23021G   23355.46733466  .00001263  00000-0  11365-3 0  9999,2 55634  70.0016  84.8326 0002439 250.1364 109.9532 14.98328879 46782,6950.196,96.107,573.757,570.366,0.0
55634.0,STARLINK-5500,PAYLOAD,2023-12-21 14:25:13,14.98329652,0.0002407,70.0021,84.4968,236.1281,123.9649,0.00015757,1.788e-05,0.0,0 STARLINK-5500,1 55634U 23021G   23355.60085274  .00001788  00000-0  15757-3 0  9993,2 55634  70.0021  84.4968 0002407 236.1281 123.9649 14.98329652 47105,6950.194,96.107,573.732,570.386,0.0
55634.0,STARLINK-5500,PAYLOAD,2023-12-21 16:01:21,14.98330534,0.0002357,70.0019,84.328,241.8022,118.2899,0.00015226,1.724e-05,0.0,0 STARLINK-5500,1 55634U 23021G   23355.66761246  .00001724  00000-0  15226-3 0  9990,2 55634  70.0019  84.3280 0002357 241.8022 118.2899 14.98330534 47114,6950.191,96.107,573.694,570.418,0.0
55634.0,STARLINK-5500,PAYLOAD,2023-12-22 11:14:59,14.98322281,0.0002491,70.0015,82.3081,242.4098,117.6808,8.9389e-05,9.74e-06,0.0,0 STARLINK-5500,1 55634U 23021G   23356.46874061  .00000974  00000-0  89389-4 0  9997,2 55634  70.0015  82.3081 0002491 242.4098 117.6808 14.98322281 46938,6950.217,96.107,573.813,570.35,0.0
55634.0,STARLINK-5500,PAYLOAD,2023-12-22 14:27:15,14.9832359,0.000255,70.001,81.9707,250.8388,109.2496,9.5787e-05,1.05e-05,0.0,0 STARLINK-5500,1 55634U 23021G   23356.60226056  .00001050  00000-0  95787-4 0  9993,2 55634  70.0010  81.9707 0002550 250.8388 109.2496 14.98323590 47254,6950.213,96.107,573.85,570.305,0.0
55634.0,STARLINK-5500,PAYLOAD,2023-12-22 16:03:23,14.98325907,0.0002351,70.0011,81.8021,270.0444,90.0445,7.8577e-05,8.45e-06,0.0,0 STARLINK-5500,1 55634U 23021G   23356.66902196  .00000845  00000-0  78577-4 0  9994,2 55634  70.0011  81.8021 0002351 270.0444  90.0445 14.98325907 47265,6950.206,96.107,573.705,570.437,0.0
